{"type": "FeatureCollection", "features": [ {"type": "Feature", "properties": {"norad_id": 43108, "name": "BEIDOU-3 M8 (C28)", "group": "beidou", "lat": 13.188596856299432, "lon": -41.47539929436352, "alt_km": 21529.039575035662, "timestamp": "2025-12-09T05:43:20.990915+00:00", "meta": {"OBJECT_NAME": "BEIDOU-3 M8 (C28)", "OBJECT_ID": "2018-003B", "EPOCH": "2025-12-08T03:21:57.743424", "MEAN_MOTION": 1.86230794, "ECCENTRICITY": 0.00047249, "INCLINATION": 54.4937, "RA_OF_ASC_NODE": 308.9576, "ARG_OF_PERICENTER": 275.4662, "MEAN_ANOMALY": 84.4669, "EPHEMERIS_TYPE": 0, "CLASSIFICATION_TYPE": "U", "NORAD_CAT_ID": 43108, "ELEMENT_SET_NO": 999, "REV_AT_EPOCH": 5380, "BSTAR": 0, "MEAN_MOTION_DOT": -7.3e-07, "MEAN_MOTION_DDOT": 0}, "tle": {"line1": "1 43108U 18003B   25342.14025166 -.00000073  00000+0  00000+0 0  9998", "line2": "2 43108  54.4937 308.9576 0004724 275.4662  84.4669  1.86230794 53800"}}, "geometry": {"type": "Point", "coordinates": [-41.47539929436352, 13.188596856299432]}}, {"type": "Feature", "properties": {"norad_id": 43207, "name": "BEIDOU-3 M4 (C22)", "group": "beidou", "lat": 55.22270575248323, "lon": 141.79357067472827, "alt_km": 21517.34837340214, "timestamp": "2025-12-09T05:43:20.990931+00:00", "meta": {"OBJECT_NAME": "BEIDOU-3 M4 (C22)", "OBJECT_ID": "2018-018A", "EPOCH": "2025-12-06T10:25:28.939872", "MEAN_MOTION": 1.86230708, "ECCENTRICITY": 0.0004178, "INCLINATION": 56.4806, "RA_OF_ASC_NODE": 69.5126, "ARG_OF_PERICENTER": 11.9666, "MEAN_ANOMALY": 348.0575, "EPHEMERIS_TYPE": 0, "CLASSIFICATION_TYPE": "U", "NORAD_CAT_ID": 43207, "ELEMENT_SET_NO": 999, "REV_AT_EPOCH": 5315, "BSTAR": 0, "MEAN_MOTION_DOT": -4.5e-07, "MEAN_MOTION_DDOT": 0}, "tle": {"line1": "1 43207U 18018A   25340.43436273 -.00000045  00000+0  00000+0 0  9998", "line2": "2 43207  56.4806  69.5126 0004178  11.9666 348.0575  1.86230708 53156"}}, "geometry": {"type": "Point", "coordinates": [141.79357067472827, 55.22270575248323]}}, {"type": "Feature", "properties": {"norad_id": 43208, "name": "BEIDOU-3 M3 (C21)", "group": "beidou", "lat": 28.88819076754436, "lon": 90.85082758281935, "alt_km": 21520.848452472383, "timestamp": "2025-12-09T05:43:20.990943+00:00", "meta": {"OBJECT_NAME": "BEIDOU-3 M3 (C21)", "OBJECT_ID": "2018-018B", "EPOCH": "2025-12-06T12:01:16.553856", "MEAN_MOTION": 1.8623091, "ECCENTRICITY": 0.0006466, "INCLINATION": 56.4802, "RA_OF_ASC_NODE": 69.5146, "ARG_OF_PERICENTER": 317.243, "MEAN_ANOMALY": 42.7213, "EPHEMERIS_TYPE": 0, "CLASSIFICATION_TYPE": "U", "NORAD_CAT_ID": 43208, "ELEMENT_SET_NO": 999, "REV_AT_EPOCH": 5315, "BSTAR": 0, "MEAN_MOTION_DOT": -4.5e-07, "MEAN_MOTION_DDOT": 0}, "tle": {"line1": "1 43208U 18018B   25340.50088604 -.00000045  00000+0  00000+0 0  9998", "line2": "2 43208  56.4802  69.5146 0006466 317.2430  42.7213  1.86230910 53150"}}, "geometry": {"type": "Point", "coordinates": [90.85082758281935, 28.88819076754436]}}, {"type": "Feature", "properties": {"norad_id": 43245, "name": "BEIDOU-3 M9 (C29)", "group": "beidou", "lat": -50.00282745294977, "lon": -174.7592023428049, "alt_km": 21529.847424406722, "timestamp": "2025-12-09T05:43:20.990954+00:00", "meta": {"OBJECT_NAME": "BEIDOU-3 M9 (C29)", "OBJECT_ID": "2018-029A", "EPOCH": "2025-12-07T06:05:41.958240", "MEAN_MOTION": 1.86227905, "ECCENTRICITY": 0.0001619, "INCLINATION": 54.3706, "RA_OF_ASC_NODE": 306.6586, "ARG_OF_PERICENTER": 277.0256, "MEAN_ANOMALY": 82.9411, "EPHEMERIS_TYPE": 0, "CLASSIFICATION_TYPE": "U", "NORAD_CAT_ID": 43245, "ELEMENT_SET_NO": 999, "REV_AT_EPOCH": 5232, "BSTAR": 0, "MEAN_MOTION_DOT": -7e-07, "MEAN_MOTION_DDOT": 0}, "tle": {"line1": "1 43245U 18029A   25341.25395785 -.00000070  00000+0  00000+0 0  9993", "line2": "2 43245  54.3706 306.6586 0001619 277.0256  82.9411  1.86227905 52322"}}, "geometry": {"type": "Point", "coordinates": [-174.7592023428049, -50.00282745294977]}}, {"type": "Feature", "properties": {"norad_id": 43246, "name": "BEIDOU-3 M10 (C30)", "group": "beidou", "lat": -48.02424273813482, "lon": -106.21917763461595, "alt_km": 21529.148021385943, "timestamp": "2025-12-09T05:43:20.990966+00:00", "meta": {"OBJECT_NAME": "BEIDOU-3 M10 (C30)", "OBJECT_ID": "2018-029B", "EPOCH": "2025-12-07T04:32:29.911776", "MEAN_MOTION": 1.86228892, "ECCENTRICITY": 0.00040611, "INCLINATION": 54.3683, "RA_OF_ASC_NODE": 306.6886, "ARG_OF_PERICENTER": 0.524, "MEAN_ANOMALY": 359.4613, "EPHEMERIS_TYPE": 0, "CLASSIFICATION_TYPE": "U", "NORAD_CAT_ID": 43246, "ELEMENT_SET_NO": 999, "REV_AT_EPOCH": 5230, "BSTAR": 0, "MEAN_MOTION_DOT": -7e-07, "MEAN_MOTION_DDOT": 0}, "tle": {"line1": "1 43246U 18029B   25341.18923509 -.00000070  00000+0  00000+0 0  9997", "line2": "2 43246  54.3683 306.6886 0004061   0.5240 359.4613  1.86228892 52306"}}, "geometry": {"type": "Point", "coordinates": [-106.21917763461595, -48.02424273813482]}}, {"type": "Feature", "properties": {"norad_id": 43539, "name": "BEIDOU-2 IGSO-7 (C16)", "group": "beidou", "lat": 50.593501060133946, "lon": -73.34744305054897, "alt_km": 36009.645321588374, "timestamp": "2025-12-09T05:43:20.990978+00:00", "meta": {"OBJECT_NAME": "BEIDOU-2 IGSO-7 (C16)", "OBJECT_ID": "2018-057A", "EPOCH": "2025-12-08T10:41:53.941344", "MEAN_MOTION": 1.00258189, "ECCENTRICITY": 0.00925204, "INCLINATION": 55.1743, "RA_OF_ASC_NODE": 164.7087, "ARG_OF_PERICENTER": 235.2301, "MEAN_ANOMALY": 309.1425, "EPHEMERIS_TYPE": 0, "CLASSIFICATION_TYPE": "U", "NORAD_CAT_ID": 43539, "ELEMENT_SET_NO": 999, "REV_AT_EPOCH": 2721, "BSTAR": 0, "MEAN_MOTION_DOT": -7e-07, "MEAN_MOTION_DDOT": 0}, "tle": {"line1": "1 43539U 18057A   25342.44576321 -.00000070  00000+0  00000+0 0  9999", "line2": "2 43539  55.1743 164.7087 0092520 235.2301 309.1425  1.00258189 27218"}}, "geometry": {"type": "Point", "coordinates": [-73.34744305054897, 50.593501060133946]}}, {"type": "Feature", "properties": {"norad_id": 43581, "name": "BEIDOU-3 M5 (C23)", "group": "beidou", "lat": 28.955867628943015, "lon": -14.87429812289345, "alt_km": 21529.865719169506, "timestamp": "2025-12-09T05:43:20.990991+00:00", "meta": {"OBJECT_NAME": "BEIDOU-3 M5 (C23)", "OBJECT_ID": "2018-062A", "EPOCH": "2025-12-07T09:56:06.099072", "MEAN_MOTION": 1.86228656, "ECCENTRICITY": 0.0002123, "INCLINATION": 54.0892, "RA_OF_ASC_NODE": 188.8244, "ARG_OF_PERICENTER": 353.0314, "MEAN_ANOMALY": 7.0363, "EPHEMERIS_TYPE": 0, "CLASSIFICATION_TYPE": "U", "NORAD_CAT_ID": 43581, "ELEMENT_SET_NO": 999, "REV_AT_EPOCH": 5006, "BSTAR": 0, "MEAN_MOTION_DOT": 5.9e-07, "MEAN_MOTION_DDOT": 0}, "tle": {"line1": "1 43581U 18062A   25341.41395948  .00000059  00000+0  00000+0 0  9998", "line2": "2 43581  54.0892 188.8244 0002123 353.0314   7.0363  1.86228656 50067"}}, "geometry": {"type": "Point", "coordinates": [-14.87429812289345, 28.955867628943015]}}, {"type": "Feature", "properties": {"norad_id": 43582, "name": "BEIDOU-3 M6 (C24)", "group": "beidou", "lat": -41.61228632158367, "lon": 48.835258904216225, "alt_km": 21554.523269329413, "timestamp": "2025-12-09T05:43:20.991007+00:00", "meta": {"OBJECT_NAME": "BEIDOU-3 M6 (C24)", "OBJECT_ID": "2018-062B", "EPOCH": "2025-12-07T19:32:10.570272", "MEAN_MOTION": 1.86229692, "ECCENTRICITY": 0.00077761, "INCLINATION": 54.0886, "RA_OF_ASC_NODE": 188.7999, "ARG_OF_PERICENTER": 46.2812, "MEAN_ANOMALY": 313.8511, "EPHEMERIS_TYPE": 0, "CLASSIFICATION_TYPE": "U", "NORAD_CAT_ID": 43582, "ELEMENT_SET_NO": 999, "REV_AT_EPOCH": 5007, "BSTAR": 0, "MEAN_MOTION_DOT": 5.5e-07, "MEAN_MOTION_DDOT": 0}, "tle": {"line1": "1 43582U 18062B   25341.81401123  .00000055  00000+0  00000+0 0  9992", "line2": "2 43582  54.0886 188.7999 0007776  46.2812 313.8511  1.86229692 50075"}}, "geometry": {"type": "Point", "coordinates": [48.835258904216225, -41.61228632158367]}}, {"type": "Feature", "properties": {"norad_id": 43602, "name": "BEIDOU-3 M12 (C26)", "group": "beidou", "lat": -53.61553578812426, "lon": 108.8771349520797, "alt_km": 21548.504443800797, "timestamp": "2025-12-09T05:43:20.991018+00:00", "meta": {"OBJECT_NAME": "BEIDOU-3 M12 (C26)", "OBJECT_ID": "2018-067A", "EPOCH": "2025-12-07T18:02:34.116000", "MEAN_MOTION": 1.86227677, "ECCENTRICITY": 0.00091651, "INCLINATION": 54.1832, "RA_OF_ASC_NODE": 187.5325, "ARG_OF_PERICENTER": 40.8071, "MEAN_ANOMALY": 319.3279, "EPHEMERIS_TYPE": 0, "CLASSIFICATION_TYPE": "U", "NORAD_CAT_ID": 43602, "ELEMENT_SET_NO": 999, "REV_AT_EPOCH": 4955, "BSTAR": 0, "MEAN_MOTION_DOT": 5.6e-07, "MEAN_MOTION_DDOT": 0}, "tle": {"line1": "1 43602U 18067A   25341.75178375  .00000056  00000+0  00000+0 0  9994", "line2": "2 43602  54.1832 187.5325 0009165  40.8071 319.3279  1.86227677 49555"}}, "geometry": {"type": "Point", "coordinates": [108.8771349520797, -53.61553578812426]}}, {"type": "Feature", "properties": {"norad_id": 43603, "name": "BEIDOU-3 M11 (C25)", "group": "beidou", "lat": -5.401246973845436, "lon": 11.369013443721204, "alt_km": 21542.867497786618, "timestamp": "2025-12-09T05:43:20.991030+00:00", "meta": {"OBJECT_NAME": "BEIDOU-3 M11 (C25)", "OBJECT_ID": "2018-067B", "EPOCH": "2025-12-07T08:23:01.607424", "MEAN_MOTION": 1.86227152, "ECCENTRICITY": 0.0005581, "INCLINATION": 54.1802, "RA_OF_ASC_NODE": 187.5102, "ARG_OF_PERICENTER": 36.6822, "MEAN_ANOMALY": 323.425, "EPHEMERIS_TYPE": 0, "CLASSIFICATION_TYPE": "U", "NORAD_CAT_ID": 43603, "ELEMENT_SET_NO": 999, "REV_AT_EPOCH": 4957, "BSTAR": 0, "MEAN_MOTION_DOT": 6e-07, "MEAN_MOTION_DDOT": 0}, "tle": {"line1": "1 43603U 18067B   25341.34932416  .00000060  00000+0  00000+0 0  9999", "line2": "2 43603  54.1802 187.5102 0005581  36.6822 323.4250  1.86227152 49576"}}, "geometry": {"type": "Point", "coordinates": [11.369013443721204, -5.401246973845436]}}]}